IRIDIUM 171             
1 43929U 19002H   25144.96929436  .00000094  00000+0  26326-4 0  9998
2 43929  86.3986 156.1194 0002610  85.0293 275.1200 14.34218008333313
IRIDIUM 170             
1 43930U 19002J   25144.52582946  .00000672  00000+0  10268-3 0  9992
2 43930  86.6101 156.0649 0002862  98.9660 261.1881 14.72254526342071
IRIDIUM 167             
1 43931U 19002K   25144.96295175  .00000045  00000+0  90037-5 0  9994
2 43931  86.3977 155.8780 0002818  89.7891 270.3628 14.34217740333311
IRIDIUM 181             
1 56726U 23068S   25144.72320086  .00000292  00000+0  80695-4 0  9993
2 56726  86.4530 219.0271 0002388  81.9294 278.2177 14.43307582106402
IRIDIUM 177             
1 56727U 23068T   25144.88375273  .00000476  00000+0  59096-4 0  9994
2 56727  86.1972 153.1879 0002724  87.5598 272.5935 14.80230049108927
IRIDIUM 174             
1 56728U 23068U   25144.58145128  .00000381  00000+0  56568-4 0  9992
2 56728  86.6111 156.1483 0002072  97.2897 262.8555 14.72272060108849
IRIDIUM 178             
1 56729U 23068V   25144.67003720  .00001015  00000+0  13019-3 0  9992
2 56729  86.6619 187.6417 0003169  76.4054 283.7521 14.80220468108895
IRIDIUM 179             
1 56730U 23068W   25144.66467796  .00000916  00000+0  11717-3 0  9992
2 56730  86.6826 195.4447 0002501  95.4599 264.6908 14.80221265108894
